CZ-2C R/B               
1 54039U 22132E   26040.54234950  .00037505  00000+0  47118-3 0  9998
2 54039  97.2964  43.0631 0018403 186.2113 173.8918 15.59403561185982
GSLV R/B                
1 54149U 22138AN  26040.77307865  .00004366  00000+0  38010-3 0  9997
2 54149  87.3860 175.7032 0019396 251.5950 108.3173 14.96559223179755
XRISM                   
1 57800U 23137A   26040.24119549  .00007124  00000+0  40858-3 0  9994
2 57800  31.0018 107.6122 0008059 115.7992 244.3478 15.11146318133482
ACS3                    
1 59588U 24077B   26040.83593598  .00018857  00000+0  15573-1 0  9997
2 59588  97.2211 348.2101 0045637 162.9942 197.2763 13.88447742 90334
SZ-21 MODULE            
1 66515U 25246C   26040.27417321  .00037161  00000+0  34919-3 0  9997
2 66515  41.4766  17.9863 0002766 286.9466  73.1072 15.66393879 13617
